{
  "type": "FeatureCollection",
  "features": [
    {
      "type": "Feature",
      "properties": {
        "norad_id": 28054,
        "name": "DMSP 5D-3 F16 (USA 172)",
        "group": "weather",
        "lat": 34.60680516365084,
        "lon": -154.28902170910558,
        "alt_km": 844.671947000892,
        "timestamp": "2025-12-27T20:30:58.931514+00:00",
        "meta_object_name": "DMSP 5D-3 F16 (USA 172)",
        "meta_object_id": "2003-048A",
        "meta_epoch": "2025-12-27T11:55:01.144992",
        "meta_mean_motion": 14.14429379,
        "meta_eccentricity": 0.0006245,
        "meta_inclination": 99.0037,
        "meta_ra_of_asc_node": 19.0689,
        "meta_arg_of_pericenter": 273.4341,
        "meta_mean_anomaly": 207.9603,
        "meta_ephemeris_type": 0,
        "meta_classification_type": "U",
        "meta_norad_cat_id": 28054,
        "meta_element_set_no": 999,
        "meta_rev_at_epoch": 14521,
        "meta_bstar": 9.5464e-05,
        "meta_mean_motion_dot": 1.37e-06,
        "meta_mean_motion_ddot": 0,
        "tle_line1": "1 28054U 03048A   25361.49654103  .00000137  00000+0  95464-4 0  9995",
        "tle_line2": "2 28054  99.0037  19.0689 0006245 273.4341 207.9603 14.14429379145217"
      },
      "geometry": {
        "type": "Point",
        "coordinates": [
          -154.28902170910558,
          34.60680516365084
        ]
      }
    },
    {
      "type": "Feature",
      "properties": {
        "norad_id": 28912,
        "name": "METEOSAT-9 (MSG-2)",
        "group": "weather",
        "lat": 5.018048222879047,
        "lon": 89.544843809382,
        "alt_km": 35896.88350799596,
        "timestamp": "2025-12-27T20:30:58.931553+00:00",
        "meta_object_name": "METEOSAT-9 (MSG-2)",
        "meta_object_id": "2005-049B",
        "meta_epoch": "2025-12-24T18:27:10.310976",
        "meta_mean_motion": 1.00268275,
        "meta_eccentricity": 0.00719695,
        "meta_inclination": 8.9553,
        "meta_ra_of_asc_node": 55.846,
        "meta_arg_of_pericenter": 282.2974,
        "meta_mean_anomaly": 77.0088,
        "meta_ephemeris_type": 0,
        "meta_classification_type": "U",
        "meta_norad_cat_id": 28912,
        "meta_element_set_no": 999,
        "meta_rev_at_epoch": 524,
        "meta_bstar": 0,
        "meta_mean_motion_dot": 1.45e-06,
        "meta_mean_motion_ddot": 0,
        "tle_line1": "1 28912U 05049B   25358.76886934  .00000145  00000+0  00000+0 0  9992",
        "tle_line2": "2 28912   8.9553  55.8460 0071969 282.2974  77.0088  1.00268275  5240"
      },
      "geometry": {
        "type": "Point",
        "coordinates": [
          89.544843809382,
          5.018048222879047
        ]
      }
    },
    {
      "type": "Feature",
      "properties": {
        "norad_id": 29522,
        "name": "DMSP 5D-3 F17 (USA 191)",
        "group": "weather",
        "lat": 66.60545466818392,
        "lon": -152.2435137417045,
        "alt_km": 833.3568406374834,
        "timestamp": "2025-12-27T20:30:58.931570+00:00",
        "meta_object_name": "DMSP 5D-3 F17 (USA 191)",
        "meta_object_id": "2006-050A",
        "meta_epoch": "2025-12-27T11:30:13.838976",
        "meta_mean_motion": 14.14926024,
        "meta_eccentricity": 0.0010058,
        "meta_inclination": 98.7393,
        "meta_ra_of_asc_node": 6.5615,
        "meta_arg_of_pericenter": 181.203,
        "meta_mean_anomaly": 178.9121,
        "meta_ephemeris_type": 0,
        "meta_classification_type": "U",
        "meta_norad_cat_id": 29522,
        "meta_element_set_no": 999,
        "meta_rev_at_epoch": 98813,
        "meta_bstar": 0.00012816,
        "meta_mean_motion_dot": 2.05e-06,
        "meta_mean_motion_ddot": 0,
        "tle_line1": "1 29522U 06050A   25361.47932684  .00000205  00000+0  12816-3 0  9998",
        "tle_line2": "2 29522  98.7393   6.5615 0010058 181.2030 178.9121 14.14926024988134"
      },
      "geometry": {
        "type": "Point",
        "coordinates": [
          -152.2435137417045,
          66.60545466818392
        ]
      }
    },
    {
      "type": "Feature",
      "properties": {
        "norad_id": 32958,
        "name": "FENGYUN 3A",
        "group": "weather",
        "lat": 73.08273340428788,
        "lon": -89.05139877743945,
        "alt_km": 825.4008241346291,
        "timestamp": "2025-12-27T20:30:58.931583+00:00",
        "meta_object_name": "FENGYUN 3A",
        "meta_object_id": "2008-026A",
        "meta_epoch": "2025-12-27T06:37:43.272192",
        "meta_mean_motion": 14.19519236,
        "meta_eccentricity": 0.0007615,
        "meta_inclination": 98.6715,
        "meta_ra_of_asc_node": 300.4982,
        "meta_arg_of_pericenter": 263.0769,
        "meta_mean_anomaly": 96.9541,
        "meta_ephemeris_type": 0,
        "meta_classification_type": "U",
        "meta_norad_cat_id": 32958,
        "meta_element_set_no": 999,
        "meta_rev_at_epoch": 91101,
        "meta_bstar": 8.6502e-05,
        "meta_mean_motion_dot": 1.39e-06,
        "meta_mean_motion_ddot": 0,
        "tle_line1": "1 32958U 08026A   25361.27619528  .00000139  00000+0  86502-4 0  9997",
        "tle_line2": "2 32958  98.6715 300.4982 0007615 263.0769  96.9541 14.19519236911010"
      },
      "geometry": {
        "type": "Point",
        "coordinates": [
          -89.05139877743945,
          73.08273340428788
        ]
      }
    },
    {
      "type": "Feature",
      "properties": {
        "norad_id": 35491,
        "name": "GOES 14",
        "group": "weather",
        "lat": -0.43911742851710434,
        "lon": -74.95886593619508,
        "alt_km": 35831.70519869663,
        "timestamp": "2025-12-27T20:30:58.931597+00:00",
        "meta_object_name": "GOES 14",
        "meta_object_id": "2009-033A",
        "meta_epoch": "2025-12-27T10:43:25.907232",
        "meta_mean_motion": 1.00097109,
        "meta_eccentricity": 8.18e-05,
        "meta_inclination": 1.2401,
        "meta_ra_of_asc_node": 85.2476,
        "meta_arg_of_pericenter": 195.603,
        "meta_mean_anomaly": 217.1667,
        "meta_ephemeris_type": 0,
        "meta_classification_type": "U",
        "meta_norad_cat_id": 35491,
        "meta_element_set_no": 999,
        "meta_rev_at_epoch": 487,
        "meta_bstar": 0,
        "meta_mean_motion_dot": 4.6e-07,
        "meta_mean_motion_ddot": 0,
        "tle_line1": "1 35491U 09033A   25361.44682763  .00000046  00000+0  00000+0 0  9992",
        "tle_line2": "2 35491   1.2401  85.2476 0000818 195.6030 217.1667  1.00097109  4871"
      },
      "geometry": {
        "type": "Point",
        "coordinates": [
          -74.95886593619508,
          -0.43911742851710434
        ]
      }
    },
    {
      "type": "Feature",
      "properties": {
        "norad_id": 35951,
        "name": "DMSP 5D-3 F18 (USA 210)",
        "group": "weather",
        "lat": -28.47457824457797,
        "lon": -16.95154218239591,
        "alt_km": 843.6024096577703,
        "timestamp": "2025-12-27T20:30:58.931610+00:00",
        "meta_object_name": "DMSP 5D-3 F18 (USA 210)",
        "meta_object_id": "2009-057A",
        "meta_epoch": "2025-12-27T12:09:56.121120",
        "meta_mean_motion": 14.14779123,
        "meta_eccentricity": 0.0011599,
        "meta_inclination": 98.8852,
        "meta_ra_of_asc_node": 337.8351,
        "meta_arg_of_pericenter": 23.5972,
        "meta_mean_anomaly": 336.573,
        "meta_ephemeris_type": 0,
        "meta_classification_type": "U",
        "meta_norad_cat_id": 35951,
        "meta_element_set_no": 999,
        "meta_rev_at_epoch": 83531,
        "meta_bstar": 0.0001889,
        "meta_mean_motion_dot": 3.2e-06,
        "meta_mean_motion_ddot": 0,
        "tle_line1": "1 35951U 09057A   25361.50689955  .00000320  00000+0  18890-3 0  9991",
        "tle_line2": "2 35951  98.8852 337.8351 0011599  23.5972 336.5730 14.14779123835314"
      },
      "geometry": {
        "type": "Point",
        "coordinates": [
          -16.95154218239591,
          -28.47457824457797
        ]
      }
    },
    {
      "type": "Feature",
      "properties": {
        "norad_id": 36411,
        "name": "EWS-G2 (GOES 15)",
        "group": "weather",
        "lat": 0.30329052404715595,
        "lon": 105.6394179896684,
        "alt_km": 35809.021556741536,
        "timestamp": "2025-12-27T20:30:58.931623+00:00",
        "meta_object_name": "EWS-G2 (GOES 15)",
        "meta_object_id": "2010-008A",
        "meta_epoch": "2025-12-27T11:34:50.984256",
        "meta_mean_motion": 1.0027102,
        "meta_eccentricity": 0.0005685,
        "meta_inclination": 0.8482,
        "meta_ra_of_asc_node": 86.0545,
        "meta_arg_of_pericenter": 180.7964,
        "meta_mean_anomaly": 64.4192,
        "meta_ephemeris_type": 0,
        "meta_classification_type": "U",
        "meta_norad_cat_id": 36411,
        "meta_element_set_no": 999,
        "meta_rev_at_epoch": 5791,
        "meta_bstar": 0,
        "meta_mean_motion_dot": 6.1e-07,
        "meta_mean_motion_ddot": 0,
        "tle_line1": "1 36411U 10008A   25361.48253454  .00000061  00000+0  00000+0 0  9991",
        "tle_line2": "2 36411   0.8482  86.0545 0005685 180.7964  64.4192  1.00271020 57917"
      },
      "geometry": {
        "type": "Point",
        "coordinates": [
          105.6394179896684,
          0.30329052404715595
        ]
      }
    }
  ]
}